OCEANSAT-2              
1 35931U 09051A   26169.70074817 -.00000170  00000+0 -90220-4 0  9990
2 35931  98.2323 156.4013 0015324 231.3836 128.5960 13.99664072879542
WORLDVIEW-2 (WV-2)      
1 35946U 09055A   26169.69469142  .00000087  00000+0  43211-4 0  9990
2 35946  98.4737 243.1235 0003799 202.8642 157.2377 14.37899831875868
SMOS                    
1 36036U 09059A   26169.50994505  .00000175  00000+0  69842-4 0  9997
2 36036  98.4425 356.8254 0001322  88.2571 271.8768 14.39773176873649
YAOGAN-7                
1 36110U 09069A   26169.64587405  .00000375  00000+0  59050-4 0  9995
2 36110  98.0070  55.5039 0025487  37.2065 323.0906 14.78011211889849
TANDEM-X                
1 36605U 10030A   26168.58693710  .00000287  00000+0  16858-4 0  9994
2 36605  97.4451 176.2891 0001888  87.7615 272.3836 15.19150445886700
CARTOSAT-2B             
1 36795U 10035A   26169.69308418  .00000360  00000+0  56303-4 0  9991
2 36795  97.9946 220.2335 0011261 178.9082 181.2155 14.78662321860073
YAOGAN-10               
1 36834U 10038A   26169.77077374  .00001396  00000+0  16855-3 0  9998
2 36834  97.8968 193.1624 0001692  88.5641 358.9304 14.85352875857447
COSMO-SKYMED 4          
1 37216U 10060A   26169.72645690  .00000137  00000+0  23768-4 0  9999
2 37216  97.8882 353.3032 0001378  82.7885 277.3485 14.82153315844790
RESOURCESAT-2           
1 37387U 11015A   26169.63742617  .00000081  00000+0  57062-4 0  9998
2 37387  98.7644 237.0693 0010245 250.8490 109.1579 14.21606885786383
HAIYANG-2A              
1 37781U 11043A   26169.71278284 -.00000276  00000+0 -24601-3 0  9990
2 37781  99.3389 172.3554 0005801  88.5809 271.6004 13.74331588746862
RASAT                   
1 37791U 11044D   26169.76222266  .00000428  00000+0  82735-4 0  9996
2 37791  98.0580 261.1350 0020293 183.6720 328.9200 14.68167810793410
SRMSAT                  
1 37841U 11058D   26169.37117840  .00000354  00000+0  48168-4 0  9995
2 37841  19.9726  52.3001 0011756 216.7081 303.9733 14.11575778757985
PLEIADES 1A             
1 38012U 11076F   26169.72132935  .00000402  00000+0  96226-4 0  9999
2 38012  98.1976 244.8041 0001667  93.9182  61.6146 14.58572507772218
ZIYUAN 1-02C (ZY 1-02C) 
1 38038U 11079A   26169.75462584  .00000419  00000+0  15204-3 0  9993
2 38038  98.4070 237.0306 0005412 311.2128 159.0668 14.38216329759435
ARIRANG-3 (KOMPSAT-3)   
1 38338U 12025B   26169.74347485  .00000328  00000+0  74422-4 0  9996
2 38338  98.1171 127.1765 0006717 105.4318 254.7626 14.62207297751573
EXACTVIEW-1 (ADS-1B)    
1 38709U 12039C   26169.57490623  .00000086  00000+0  56572-4 0  9994
2 38709  98.9780 286.9964 0011243 162.5437 197.6130 14.24984908722909
SPOT 6                  
1 38755U 12047A   26169.70705552  .00000396  00000+0  95032-4 0  9997
2 38755  98.2117 236.9985 0001511  90.7301 269.4072 14.58564583733279
PLEIADES 1B             
1 39019U 12068A   26169.72597681  .00000462  00000+0  10910-3 0  9993
2 39019  98.1947 244.7567 0001670  89.7244 270.4146 14.58562371721078
GOKTURK 2               
1 39030U 12073A   26169.77611858  .00000428  00000+0  69787-4 0  9999
2 39030  97.6811   7.1273 0001534  55.7183 304.4172 14.75544235724746
LANDSAT 8               
1 39084U 13008A   26169.67282150  .00000239  00000+0  63257-4 0  9991
2 39084  98.2302 239.7905 0001360  93.6239 266.5115 14.57095392698113
SARAL                   
1 39086U 13009A   26169.64701801  .00000061  00000+0  38350-4 0  9999
2 39086  98.5557 356.1957 0000662 299.0378  61.0740 14.32856264695813
GAOFEN-1                
1 39150U 13018A   26169.75718605  .00000423  00000+0  67866-4 0  9999
2 39150  97.9094 241.7934 0015684 260.9577  98.9858 14.76537781708470
VNREDSAT 1              
1 39160U 13021B   26169.72838453  .00000600  00000+0  12083-3 0  9992
2 39160  97.9074 223.0859 0001730  86.9586 273.1815 14.64858871700511
ARIRANG-5 (KOMPSAT-5)   
1 39227U 13042A   26169.76232530  .00000544  00000+0  43192-4 0  9990
2 39227  97.6200 356.4405 0005432 116.4449 243.7335 15.04494499704095
SKYSAT-A                
1 39418U 13066C   26169.38165462  .00001913  00000+0  11156-3 0  9990
2 39418  97.3811 218.7409 0020020 313.1240  46.8317 15.12980718688660
DUBAISAT-2              
1 39419U 13066D   26169.72726954  .00002341  00000+0  14696-3 0  9996
2 39419  97.4563 159.8310 0012051  35.7258 324.4776 15.10187978686626
GPM-CORE                
1 39574U 14009C   26169.63386900  .00009207  00000+0  20162-3 0  9992
2 39574  64.9726 303.2815 0011787 252.0250 107.9606 15.44597486698034
SENTINEL-1A             
1 39634U 14016A   26169.73892288  .00000019  00000+0  13701-4 0  9993
2 39634  98.1774 177.2494 0001411  80.8801 279.2559 14.59199045650242
KAZEOSAT 1              
1 39731U 14024A   26169.68692413  .00000194  00000+0  71975-4 0  9993
2 39731  98.3205 242.0970 0001327  75.1277 285.0059 14.42080931638770
ALOS-2                  
1 39766U 14029A   26169.69472604  .00001405  00000+0  19491-3 0  9995
2 39766  97.9225 266.8366 0001666  91.1402 269.0000 14.79474032651808
KAZEOSAT 2              
1 40010U 14033A   26169.71196338  .00000726  00000+0  89984-4 0  9994
2 40010  97.5397   9.2426 0007711 323.9513  36.1182 14.85471972649189
