OBJECT_NAME,OBJECT_ID,EPOCH,MEAN_MOTION,ECCENTRICITY,INCLINATION,RA_OF_ASC_NODE,ARG_OF_PERICENTER,MEAN_ANOMALY,EPHEMERIS_TYPE,CLASSIFICATION_TYPE,NORAD_CAT_ID,ELEMENT_SET_NO,REV_AT_EPOCH,BSTAR,MEAN_MOTION_DOT,MEAN_MOTION_DDOT
OCEANSAT-2,2009-051A,2026-06-18T16:49:04.641888,13.99664072,.0015324,98.2323,156.4013,231.3836,128.5960,0,U,35931,999,87954,-.9022E-4,-.17E-5,0
WORLDVIEW-2 (WV-2),2009-055A,2026-06-18T16:40:21.338688,14.37899831,.0003799,98.4737,243.1235,202.8642,157.2377,0,U,35946,999,87586,.43211E-4,.87E-6,0
SMOS,2009-059A,2026-06-18T12:14:19.252320,14.39773176,.0001322,98.4425,356.8254,88.2571,271.8768,0,U,36036,999,87364,.69842E-4,.175E-5,0
YAOGAN-7,2009-069A,2026-06-18T15:30:03.517920,14.78011211,.0025487,98.0070,55.5039,37.2065,323.0906,0,U,36110,999,88984,.5905E-4,.375E-5,0
TANDEM-X,2010-030A,2026-06-17T14:05:11.365440,15.19150445,.00018883,97.4451,176.2891,87.7615,272.3836,0,U,36605,999,88670,.16858258E-4,.287E-5,0
CARTOSAT-2B,2010-035A,2026-06-18T16:38:02.473152,14.78662321,.0011261,97.9946,220.2335,178.9082,181.2155,0,U,36795,999,86007,.56303E-4,.36E-5,0
YAOGAN-10,2010-038A,2026-06-18T18:29:54.851136,14.85352875,.0001692,97.8968,193.1624,88.5641,358.9304,0,U,36834,999,85744,.16855E-3,.1396E-4,0
COSMO-SKYMED 4,2010-060A,2026-06-18T17:26:05.876160,14.82153315,.0001378,97.8882,353.3032,82.7885,277.3485,0,U,37216,999,84479,.23768E-4,.137E-5,0
RESOURCESAT-2,2011-015A,2026-06-18T15:17:53.621088,14.21606885,.0010245,98.7644,237.0693,250.8490,109.1579,0,U,37387,999,78638,.57062E-4,.81E-6,0
HAIYANG-2A,2011-043A,2026-06-18T17:06:24.437376,13.74331588,.0005801,99.3389,172.3554,88.5809,271.6004,0,U,37781,999,74686,-.24601E-3,-.276E-5,0
RASAT,2011-044D,2026-06-18T18:17:36.037824,14.68167810,.0020293,98.0580,261.1350,183.6720,328.9200,0,U,37791,999,79341,.82735E-4,.428E-5,0
SRMSAT,2011-058D,2026-06-18T08:54:29.813760,14.11575778,.0011756,19.9726,52.3001,216.7081,303.9733,0,U,37841,999,75798,.48168E-4,.354E-5,0
PLEIADES 1A,2011-076F,2026-06-18T17:18:42.855840,14.58572507,.0001667,98.1976,244.8041,93.9182,61.6146,0,U,38012,999,77221,.96226E-4,.402E-5,0
ZIYUAN 1-02C (ZY 1-02C),2011-079A,2026-06-18T18:06:39.672576,14.38216329,.0005412,98.4070,237.0306,311.2128,159.0668,0,U,38038,999,75943,.15204E-3,.419E-5,0
ARIRANG-3 (KOMPSAT-3),2012-025B,2026-06-18T17:50:36.227040,14.62207297,.0006717,98.1171,127.1765,105.4318,254.7626,0,U,38338,999,75157,.74422E-4,.328E-5,0
EXACTVIEW-1 (ADS-1B),2012-039C,2026-06-18T13:47:51.898272,14.24984908,.0011243,98.9780,286.9964,162.5437,197.6130,0,U,38709,999,72290,.56572E-4,.86E-6,0
SPOT 6,2012-047A,2026-06-18T16:58:09.596928,14.58564583,.0001511,98.2117,236.9985,90.7301,269.4072,0,U,38755,999,73327,.95032E-4,.396E-5,0
PLEIADES 1B,2012-068A,2026-06-18T17:25:24.396384,14.58562371,.000167,98.1947,244.7567,89.7244,270.4146,0,U,39019,999,72107,.1091E-3,.462E-5,0
GOKTURK 2,2012-073A,2026-06-18T18:37:36.645312,14.75544235,.0001534,97.6811,7.1273,55.7183,304.4172,0,U,39030,999,72474,.69787E-4,.428E-5,0
LANDSAT 8,2013-008A,2026-06-18T16:08:51.777600,14.57095392,.000136,98.2302,239.7905,93.6239,266.5115,0,U,39084,999,69811,.63257E-4,.239E-5,0
SARAL,2013-009A,2026-06-18T15:31:42.356064,14.32856264,.0000662,98.5557,356.1957,299.0378,61.0740,0,U,39086,999,69581,.3835E-4,.61E-6,0
GAOFEN-1,2013-018A,2026-06-18T18:10:20.874720,14.76537781,.0015684,97.9094,241.7934,260.9577,98.9858,0,U,39150,999,70847,.67866E-4,.423E-5,0
VNREDSAT 1,2013-021B,2026-06-18T17:28:52.423392,14.64858871,.000173,97.9074,223.0859,86.9586,273.1815,0,U,39160,999,70051,.12083E-3,.6E-5,0
ARIRANG-5 (KOMPSAT-5),2013-042A,2026-06-18T18:17:44.905920,15.04494499,.0005432,97.6200,356.4405,116.4449,243.7335,0,U,39227,999,70409,.43192E-4,.544E-5,0
SKYSAT-A,2013-066C,2026-06-18T09:09:34.959168,15.12980718,.002002,97.3811,218.7409,313.1240,46.8317,0,U,39418,999,68866,.11156E-3,.1913E-4,0
DUBAISAT-2,2013-066D,2026-06-18T17:27:16.088256,15.10187978,.0012051,97.4563,159.8310,35.7258,324.4776,0,U,39419,999,68662,.14696E-3,.2341E-4,0
GPM-CORE,2014-009C,2026-06-18T15:12:46.281600,15.44597486,.0011787,64.9726,303.2815,252.0250,107.9606,0,U,39574,999,69803,.20162E-3,.9207E-4,0
SENTINEL-1A,2014-016A,2026-06-18T17:44:02.936832,14.59199045,.0001411,98.1774,177.2494,80.8801,279.2559,0,U,39634,999,65024,.13701E-4,.19E-6,0
KAZEOSAT 1,2014-024A,2026-06-18T16:29:10.244832,14.42080931,.0001327,98.3205,242.0970,75.1277,285.0059,0,U,39731,999,63877,.71975E-4,.194E-5,0
ALOS-2,2014-029A,2026-06-18T16:40:24.329856,14.79474032,.0001666,97.9225,266.8366,91.1402,269.0000,0,U,39766,999,65180,.19491E-3,.1405E-4,0
KAZEOSAT 2,2014-033A,2026-06-18T17:05:13.636032,14.85471972,.0007711,97.5397,9.2426,323.9513,36.1182,0,U,40010,999,64918,.89984E-4,.726E-5,0
